{"fetched_at":"2026-03-29T16:36:15Z","count":15609,"tles":[{"name":"STARLINK-11587 [DTC]","line1":"1 63310U 25057D   26087.89109286  .00302764  00000+0  22660-2 0  9997","line2":"2 63310  43.0007 149.1368 0000665 309.7673  50.3136 15.70966011 60193","category":"Starlink"}]}